     3.00           N                   E                   RINEX VERSION / TYPE
BRD_USR             ESA                 20190111 231645  UTCPGM / RUN BY / DATE
 GAL   4.0250E+01  4.2969E-02 -8.8501E-04  0.0000E+00       IONOSPHERIC CORR
GAUT  2.7939677238E-09-1.776356839E-15 432000 2035 GSTB   0 TIME SYSTEM CORR
GPGA  2.1827872843E-09 1.199040867E-14 518400 2035 GSTB   0 TIME SYSTEM CORR
                                                            END OF HEADER
E05 2019 01 11 21 40 00 1.267017796636E-04-6.551204023708E-12 0.000000000000E+00
     8.200000000000E+01-5.656250000000E+00 3.117987019532E-09 1.883639326053E+00
    -2.812594175339E-07 1.309536164626E-04 1.191906630993E-05 5.440625314713E+03
     5.100000000000E+05-5.587935447693E-09 1.241721240571E+00 2.607703208923E-08
     9.524519592529E-01 8.009375000000E+01 1.620696913057E+00-5.516301204659E-09
     2.971552348511E-10 5.210000000000E+02 2.035000000000E+03 0.000000000000E+00
     3.120000000000E+00 0.000000000000E+00-1.164153218269E-09-1.396983861923E-09
     5.106850000000E+05 0.000000000000E+00 0.000000000000E+00 0.000000000000E+00
E09 2019 01 11 21 40 00 6.561092799529E-03-1.128341864387E-11 0.000000000000E+00
     8.200000000000E+01-4.500000000000E+00 3.065127674871E-09-2.074101243373E+00
    -3.483146429062E-07 2.405495615676E-04 1.155026257038E-05 5.440624940872E+03
     5.100000000000E+05-2.421438694000E-08 1.233121342054E+00-1.862645149231E-09
     9.584557560322E-01 9.059375000000E+01 7.888274598871E-02-5.475228065226E-09
     2.900120801672E-10 5.210000000000E+02 2.035000000000E+03 0.000000000000E+00
     3.120000000000E+00 0.000000000000E+00-3.259629011154E-09-3.958120942116E-09
     5.106850000000E+05 0.000000000000E+00 0.000000000000E+00 0.000000000000E+00
E11 2019 01 11 21 40 00 5.719591805246E-03 9.379164112033E-13 0.000000000000E+00
     8.200000000000E+01 2.050000000000E+01 3.032983478793E-09 4.586225591047E-01
     9.033828973770E-07 2.707107923925E-04 2.447515726089E-06 5.440602304459E+03
     5.100000000000E+05 8.009374141693E-08-8.635688281594E-01 1.490116119385E-08
     9.819145559054E-01 2.970625000000E+02-3.581327076534E-01-5.817028016852E-09
     1.346484657919E-10 5.210000000000E+02 2.035000000000E+03 0.000000000000E+00
     3.120000000000E+00 0.000000000000E+00-1.839362084866E-08-1.979060471058E-08
     5.106850000000E+05 0.000000000000E+00 0.000000000000E+00 0.000000000000E+00
E12 2019 01 11 21 40 00 5.921436590143E-03 8.446932042716E-11 0.000000000000E+00
     8.200000000000E+01 1.815625000000E+01 2.965837824764E-09 1.766783109311E+00
     8.493661880493E-07 3.963587805629E-04 2.516433596611E-06 5.440601831436E+03
     5.100000000000E+05-2.607703208923E-08-8.635848105394E-01 5.774199962616E-08
     9.819292860276E-01 2.969375000000E+02-8.626615687913E-01-5.734524580252E-09
     1.082187934614E-10 5.210000000000E+02 2.035000000000E+03 0.000000000000E+00
     3.120000000000E+00 0.000000000000E+00-1.583248376846E-08-1.629814505577E-08
     5.106850000000E+05 0.000000000000E+00 0.000000000000E+00 0.000000000000E+00
E13 2019 01 11 21 40 00 3.816167009063E-04 4.689582056017E-13 0.000000000000E+00
     8.200000000000E+01 2.193750000000E+01 2.988695919753E-09-1.523974887580E+00
     1.031905412674E-06 3.423476591706E-04 3.483146429062E-06 5.440593921661E+03
     5.100000000000E+05-1.862645149231E-09-8.688579719020E-01-3.725290298462E-09
     9.851559303274E-01 2.774375000000E+02-1.510626026358E+00-5.749168047354E-09
     1.510777215649E-10 5.210000000000E+02 2.035000000000E+03 0.000000000000E+00
    -1.000000000000E+00 4.550000000000E+02-4.423782229424E-09-5.355104804039E-09
     5.106850000000E+05 0.000000000000E+00 0.000000000000E+00 0.000000000000E+00
E15 2019 01 11 21 40 00 9.232259471901E-04-1.051603248925E-12 0.000000000000E+00
     8.200000000000E+01 2.881250000000E+01 2.934050786421E-09-6.487759148181E-01
     1.411885023117E-06 3.898567520082E-04 3.542751073837E-06 5.440593488693E+03
     5.100000000000E+05-2.607703208923E-08-8.688699327203E-01 0.000000000000E+00
     9.851142488655E-01 2.766562500000E+02-1.603557288769E+00-5.740239103999E-09
     1.867934949846E-10 5.210000000000E+02 2.035000000000E+03 0.000000000000E+00
     3.120000000000E+00 4.550000000000E+02 1.396983861923E-09 1.396983861923E-09
     5.106850000000E+05 0.000000000000E+00 0.000000000000E+00 0.000000000000E+00
E19 2019 01 11 21 40 00-9.194773156196E-06 3.552713678801E-13 0.000000000000E+00
     8.200000000000E+01-1.421875000000E+01 3.001910755918E-09-2.708342677938E+00
    -5.643814802170E-07 1.310092629865E-04 1.039355993271E-05 5.440624286652E+03
     5.100000000000E+05 3.725290298462E-09 1.238476066951E+00-2.421438694000E-08
     9.582115116185E-01 1.155937500000E+02 2.363316965798E+00-5.467727752808E-09
     3.060841782060E-10 5.210000000000E+02 2.035000000000E+03 0.000000000000E+00
     3.120000000000E+00 0.000000000000E+00-8.614733815193E-09-8.847564458847E-09
     5.106850000000E+05 0.000000000000E+00 0.000000000000E+00 0.000000000000E+00
E21 2019 01 11 21 40 00-5.139597342350E-04-1.904254531837E-12 0.000000000000E+00
     8.200000000000E+01-7.343750000000E+00 2.930479209079E-09-1.904369546716E+00
    -2.905726432800E-07 4.799873568118E-05 7.295981049538E-06 5.440623796463E+03
     5.100000000000E+05 5.029141902924E-08-2.951484611764E+00-9.313225746155E-09
     9.897229469848E-01 1.987187500000E+02 1.918467126485E-01-5.485942797252E-09
    -3.743013054375E-10 5.210000000000E+02 2.035000000000E+03 0.000000000000E+00
     3.120000000000E+00 0.000000000000E+00-2.328306436539E-09-3.026798367500E-09
     5.106850000000E+05 0.000000000000E+00 0.000000000000E+00 0.000000000000E+00
E24 2019 01 11 21 40 00 6.290931196418E-03-1.959676865226E-11 0.000000000000E+00
     8.200000000000E+01 3.218750000000E+00 2.899406486204E-09 1.705678997542E+00
     1.732259988785E-07 4.796920111403E-04 8.078292012215E-06 5.440614511490E+03
     5.100000000000E+05-5.401670932770E-08-2.945415541043E+00-1.676380634308E-08
     9.877282874421E-01 1.805312500000E+02 4.881109250593E-01-5.377366846056E-09
    -3.796586714504E-10 5.210000000000E+02 2.035000000000E+03 0.000000000000E+00
     3.120000000000E+00 0.000000000000E+00 4.284083843231E-08 4.796311259270E-08
     5.106850000000E+05 0.000000000000E+00 0.000000000000E+00 0.000000000000E+00
E25 2019 01 11 21 40 00 1.926687429659E-03-1.128341864387E-11 0.000000000000E+00
     8.200000000000E+01 1.718750000000E+00 2.898335013001E-09 2.750139869839E+00
     2.197921276093E-07 1.946620177478E-04 8.037313818932E-06 5.440624256134E+03
     5.100000000000E+05 6.146728992462E-08-2.951493956885E+00 5.587935447693E-08
     9.897287606213E-01 1.808437500000E+02-1.319481109159E+00-5.454870074377E-09
    -4.425184326689E-10 5.210000000000E+02 2.035000000000E+03 0.000000000000E+00
     3.120000000000E+00 0.000000000000E+00-1.396983861923E-09-1.629814505577E-09
     5.106850000000E+05 0.000000000000E+00 0.000000000000E+00 0.000000000000E+00
E26 2019 01 11 21 40 00 5.030613683630E-03-4.328626346251E-11 0.000000000000E+00
     8.200000000000E+01 1.912500000000E+01 3.022268746767E-09-1.804346038438E+00
     8.270144462585E-07 3.191562136635E-04 2.983957529068E-06 5.440606252670E+03
     5.100000000000E+05 3.725290298462E-09-8.599454946044E-01-7.450580596924E-09
     9.782728510252E-01 2.869375000000E+02-2.012242872987E+00-5.775597719685E-09
     1.010756387775E-10 5.210000000000E+02 2.035000000000E+03 0.000000000000E+00
     3.120000000000E+00 0.000000000000E+00 1.164153218269E-09 1.164153218269E-09
     5.106850000000E+05 0.000000000000E+00 0.000000000000E+00 0.000000000000E+00
E27 2019 01 11 21 40 00 5.516492528841E-04-7.688072400924E-12 0.000000000000E+00
     8.200000000000E+01-2.531250000000E+00 2.968695086638E-09-9.341554827540E-02
    -1.080334186554E-07 1.901024952531E-04 7.243826985359E-06 5.440622396469E+03
     5.100000000000E+05 1.862645149231E-08-2.951468486018E+00 1.080334186554E-07
     9.896957308569E-01 2.002500000000E+02-8.322412684294E-01-5.529516040824E-09
    -4.139458139333E-10 5.210000000000E+02 2.035000000000E+03 0.000000000000E+00
     3.120000000000E+00 0.000000000000E+00-2.793967723846E-09-3.259629011154E-09
     5.106850000000E+05 0.000000000000E+00 0.000000000000E+00 0.000000000000E+00
E31 2019 01 11 21 40 00 9.350701584481E-04-9.620748642192E-12 0.000000000000E+00
     8.200000000000E+01 2.500000000000E+00 2.820831784681E-09-1.762740390790E+00
     1.024454832077E-07 2.323484513909E-04 7.940456271172E-06 5.440625959396E+03
     5.100000000000E+05-5.029141902924E-08-2.951517065139E+00 2.421438694000E-08
     9.896991760290E-01 1.832187500000E+02-1.519074085682E+00-5.381295581132E-09
    -4.200174954146E-10 5.210000000000E+02 2.035000000000E+03 0.000000000000E+00
     3.120000000000E+00 0.000000000000E+00-2.328306436539E-10-2.328306436539E-10
     5.106850000000E+05 0.000000000000E+00 0.000000000000E+00 0.000000000000E+00
E02 2019 01 11 21 40 00 4.293723031878E-05 1.577404873387E-12 0.000000000000E+00
     8.200000000000E+01-1.500000000000E+00 2.879405653089E-09 8.048596698187E-01
    -2.235174179077E-08 2.667995868251E-04 7.614493370056E-06 5.440613901138E+03
     5.100000000000E+05 2.235174179077E-08-2.948909369775E+00-1.676380634308E-08
     9.901688824513E-01 1.889062500000E+02-1.789318480183E-01-5.437369345401E-09
    -4.743054710124E-10 2.580000000000E+02 2.035000000000E+03 0.000000000000E+00
     3.120000000000E+00 0.000000000000E+00-6.286427378654E-09 0.000000000000E+00
     5.107000000000E+05 0.000000000000E+00 0.000000000000E+00 0.000000000000E+00
